JILIN-1 08              
1 43160U 18008F   26186.49065355  .00008354  00000+0  25666-3 0  9998
2 43160  97.1802 205.2298 0006500  27.2153 332.9430 15.33931133467757
S-NET D                 
1 43186U 18014G   26186.27433500  .00008525  00000+0  43626-3 0  9996
2 43186  97.5341  90.9522 0006931 327.1488  32.9313 15.16855433461500
S-NET B                 
1 43187U 18014H   26186.28614187  .00008646  00000+0  44270-3 0  9990
2 43187  97.5346  90.9510 0007435 320.4689  39.6001 15.16824843461501
S-NET A                 
1 43188U 18014J   26186.27311248  .00008521  00000+0  43588-3 0  9995
2 43188  97.5357  91.1504 0007335 321.9490  38.1224 15.16864051461501
S-NET C                 
1 43189U 18014K   26186.29011141  .00008639  00000+0  44240-3 0  9993
2 43189  97.5374  91.2446 0008577 311.6281  48.4216 15.16816485460052
PAZ                     
1 43215U 18020A   26186.61599779  .00002118  00000+0  10403-3 0  9994
2 43215  97.4453 193.7396 0001699  87.4782 272.6647 15.19150766463804
GOES 17                 
1 43226U 18022A   26186.48768091 -.00000169  00000+0  00000+0 0  9991
2 43226   0.9807  85.4269 0000699  58.1013 226.0203  1.00270863 30600
ZHUHAI-1 OVS-02         
1 43440U 18040B   26186.60233912  .00008529  00000+0  34138-3 0  9992
2 43440  97.0384 202.7414 0004054 160.5281 199.6113 15.25285820455523
ZHUHAI-1 OHS-02         
1 43441U 18040C   26186.64255723  .00008427  00000+0  32814-3 0  9997
2 43441  97.0363 209.7372 0010378 154.3626 205.8130 15.26167501117093
GAOFEN-6                
1 43484U 18048A   26186.77585969 -.00000017  00000+0  50539-5 0  9998
2 43484  98.0964 249.4556 0012061 109.1890 251.0626 14.76374832436138
LUOJIA-1 01             
1 43485U 18048B   26186.60798858  .00005064  00000+0  56582-3 0  9992
2 43485  97.8094 264.5008 0010238  65.2750 294.9531 14.87362455436952
PAKTES 1A               
1 43529U 18056A   26186.62687296  .00002839  00000+0  23764-3 0  9998
2 43529  98.1291 343.8997 0020403  49.1684 311.1302 14.99178610434681
PRSS-1                  
1 43530U 18056B   26186.62216522  .00002035  00000+0  26278-3 0  9991
2 43530  97.7808 253.9814 0001384  78.1379 281.9990 14.82022209431162
HAIYANG-1C              
1 43609U 18068A   26186.59353644  .00000593  00000+0  22700-3 0  9997
2 43609  98.5181 258.6355 0011744  45.1838 315.0300 14.34186379409726
SSTL S1-4               
1 43618U 18071A   26186.61363269  .00000750  00000+0  71371-4 0  9992
2 43618  97.5008  57.4592 0002265  96.8577 263.2902 14.96198744425695
HAIYANG-2B              
1 43655U 18081A   26186.58783692 -.00000144  00000+0 -97726-4 0  9997
2 43655  99.3284 195.0664 0000473 160.2569 199.8601 13.79308351387466
CFOSAT                  
1 43662U 18083A   26186.43805331  .00005142  00000+0  26729-3 0  9991
2 43662  97.3608 190.4316 0002110  80.1119 280.0352 15.16494318425209
TEN-KOH                 
1 43677U 18084G   26186.03266030  .00003436  00000+0  25996-3 0  9990
2 43677  98.0741  19.1464 0010364  61.3165 298.9099 15.03006481418848
DIWATA-2B               
1 43678U 18084H   26186.57522192  .00004119  00000+0  33122-3 0  9993
2 43678  98.1210  23.5861 0013093 113.7687 246.4910 15.00538406418972
STARS-AO                
1 43679U 18084J   26186.54082409  .00009332  00000+0  47211-3 0  9999
2 43679  98.0486  41.6439 0003623  99.9527 260.2114 15.17270703420250
AUTCUBE 2               
1 43681U 18084K   26186.31932696  .00006415  00000+0  39636-3 0  9990
2 43681  98.0700  33.4553 0008569 350.8938   9.2133 15.10221718419667
METOP-C                 
1 43689U 18087A   26186.57990269  .00000121  00000+0  74921-4 0  9994
2 43689  98.6635 245.8465 0002193 106.0466 254.0953 14.21517309397449
ES'HAIL 2               
1 43700U 18090A   26186.58179850  .00000158  00000+0  00000+0 0  9990
2 43700   0.0159  65.5704 0002304  78.7208  14.5406  1.00274128 27867
MOHAMMED VI-B           
1 43717U 18095A   26186.60268800  .00000900  00000+0  13470-3 0  9994
2 43717  97.9547 258.6741 0001641  96.4892 263.6505 14.77073639410906
HYSIS                   
1 43719U 18096A   26186.61795943  .00002259  00000+0  31537-3 0  9994
2 43719  97.9827 253.2211 0001886  88.3282 271.8145 14.78659668410146
COSMOS 2530 (RODNIK-S *)
1 43751U 18097A   26186.64962442 -.00000010  00000+0 -14469-3 0  9994
2 43751  82.5119 210.8225 0019401   0.0396   0.0682 12.42881632344588
COSMOS 2531 (RODNIK-S *)
1 43752U 18097B   26186.59094965 -.00000107  00000+0 -84281-3 0  9991
2 43752  82.5164 211.9237 0017036  19.7763 340.3974 12.42912698344593
COSMOS 2532 (RODNIK-S *)
1 43753U 18097C   26186.61926229 -.00000060  00000+0 -50242-3 0  9990
2 43753  82.5109 210.6837 0018461  21.5324 338.6528 12.42910199344568
