OBJECT_NAME,OBJECT_ID,EPOCH,MEAN_MOTION,ECCENTRICITY,INCLINATION,RA_OF_ASC_NODE,ARG_OF_PERICENTER,MEAN_ANOMALY,EPHEMERIS_TYPE,CLASSIFICATION_TYPE,NORAD_CAT_ID,ELEMENT_SET_NO,REV_AT_EPOCH,BSTAR,MEAN_MOTION_DOT,MEAN_MOTION_DDOT
JILIN-1 08,2018-008F,2026-07-05T11:46:32.465856,15.33931133,.0006501,97.1802,205.2298,27.2153,332.9430,0,U,43160,999,46775,.25666E-3,.8354E-4,0
S-NET D,2018-014G,2026-07-05T06:35:02.543136,15.16855433,.0006932,97.5341,90.9522,327.1488,32.9313,0,U,43186,999,46150,.43626E-3,.8525E-4,0
S-NET B,2018-014H,2026-07-05T06:52:02.656704,15.16824843,.0007436,97.5346,90.9510,320.4689,39.6001,0,U,43187,999,46150,.4427E-3,.8646E-4,0
S-NET A,2018-014J,2026-07-05T06:33:16.918272,15.16864051,.0007335,97.5357,91.1504,321.9490,38.1224,0,U,43188,999,46150,.43588E-3,.8521E-4,0
S-NET C,2018-014K,2026-07-05T06:57:45.624960,15.16816485,.0008577,97.5374,91.2446,311.6281,48.4216,0,U,43189,999,46005,.4424E-3,.8639E-4,0
PAZ,2018-020A,2026-07-05T14:47:02.209056,15.19150766,.0001699,97.4453,193.7396,87.4782,272.6647,0,U,43215,999,46380,.10403E-3,.2118E-4,0
GOES 17,2018-022A,2026-07-05T11:42:15.629760,1.00270863,.0000699,0.9807,85.4269,58.1013,226.0203,0,U,43226,999,3060,0,-.169E-5,0
ZHUHAI-1 OVS-02,2018-040B,2026-07-05T14:27:22.099968,15.25285820,.00040548,97.0384,202.7414,160.5281,199.6113,0,U,43440,999,45552,.34137864E-3,.8529E-4,0
ZHUHAI-1 OHS-02,2018-040C,2026-07-05T15:25:16.944672,15.26167501,.00103789,97.0363,209.7372,154.3626,205.8130,0,U,43441,999,11709,.328135E-3,.8427E-4,0
GAOFEN-6,2018-048A,2026-07-05T18:37:14.277216,14.76374832,.0012061,98.0964,249.4556,109.1890,251.0626,0,U,43484,999,43613,.50539E-5,-.17E-6,0
LUOJIA-1 01,2018-048B,2026-07-05T14:35:30.213312,14.87362455,.00102387,97.8094,264.5008,65.2750,294.9531,0,U,43485,999,43695,.56581557E-3,.5064E-4,0
PAKTES 1A,2018-056A,2026-07-05T15:02:41.823744,14.99178610,.0020403,98.1291,343.8997,49.1684,311.1302,0,U,43529,999,43468,.23763502E-3,.2839E-4,0
PRSS-1,2018-056B,2026-07-05T14:55:55.075008,14.82022209,.00013843,97.7808,253.9814,78.1379,281.9990,0,U,43530,999,43116,.26277902E-3,.2035E-4,0
HAIYANG-1C,2018-068A,2026-07-05T14:14:41.548416,14.34186379,.0011744,98.5181,258.6355,45.1838,315.0300,0,U,43609,999,40972,.22700473E-3,.593E-5,0
SSTL S1-4,2018-071A,2026-07-05T14:43:37.864416,14.96198744,.00022654,97.5008,57.4592,96.8577,263.2902,0,U,43618,999,42569,.71370791E-4,.75E-5,0
HAIYANG-2B,2018-081A,2026-07-05T14:06:29.109888,13.79308351,.00004739,99.3284,195.0664,160.2569,199.8601,0,U,43655,999,38746,-.97726E-4,-.144E-5,0
CFOSAT,2018-083A,2026-07-05T10:30:47.805120,15.16494318,.000211,97.3608,190.4316,80.1119,280.0352,0,U,43662,999,42520,.26729E-3,.5142E-4,0
TEN-KOH,2018-084G,2026-07-05T00:47:01.849056,15.03006481,.0010364,98.0741,19.1464,61.3165,298.9099,0,U,43677,999,41884,.25996E-3,.3436E-4,0
DIWATA-2B,2018-084H,2026-07-05T13:48:19.173888,15.00538406,.00130939,98.1210,23.5861,113.7687,246.4910,0,U,43678,999,41897,.33121662E-3,.4119E-4,0
STARS-AO,2018-084J,2026-07-05T12:58:47.201376,15.17270702,.0003624,98.0486,41.6439,99.9527,260.2114,0,U,43679,999,42025,.47211E-3,.9332E-4,0
AUTCUBE 2,2018-084K,2026-07-05T07:39:49.849344,15.10221718,.0008569,98.0700,33.4553,350.8938,9.2133,0,U,43681,999,41966,.39636E-3,.6415E-4,0
METOP-C,2018-087A,2026-07-05T13:55:03.592416,14.21517309,.00021935,98.6635,245.8465,106.0466,254.0953,0,U,43689,999,39744,.74921098E-4,.121E-5,0
ES'HAIL 2,2018-090A,2026-07-05T13:57:47.390400,1.00274128,.0002304,0.0159,65.5704,78.7208,14.5406,0,U,43700,999,2786,0,.158E-5,0
MOHAMMED VI-B,2018-095A,2026-07-05T14:27:52.243200,14.77073639,.00016411,97.9547,258.6741,96.4892,263.6505,0,U,43717,999,41090,.13469592E-3,.9E-5,0
HYSIS,2018-096A,2026-07-05T14:49:51.694752,14.78659668,.00018863,97.9827,253.2211,88.3282,271.8145,0,U,43719,999,41014,.31537315E-3,.2259E-4,0
COSMOS 2530 (RODNIK-S 16),2018-097A,2026-07-05T15:35:27.549888,12.42881632,.00194011,82.5119,210.8225,0.0396,0.0682,0,U,43751,999,34458,-.14468786E-3,-.1E-6,0
COSMOS 2531 (RODNIK-S 17),2018-097B,2026-07-05T14:10:58.049760,12.42912698,.00170365,82.5164,211.9237,19.7763,340.3974,0,U,43752,999,34459,-.84280747E-3,-.107E-5,0
COSMOS 2532 (RODNIK-S 18),2018-097C,2026-07-05T14:51:44.261856,12.42910199,.00184618,82.5109,210.6837,21.5324,338.6528,0,U,43753,999,34456,-.50242325E-3,-.6E-6,0
